[{"OBJECT_NAME":"STARLINK-34322","OBJECT_ID":"2025-142G","EPOCH":"2026-03-09T21:27:01.386720","MEAN_MOTION":14.98335941,"ECCENTRICITY":0.00026205,"INCLINATION":70.0016,"RA_OF_ASC_NODE":313.8164,"ARG_OF_PERICENTER":270.3197,"MEAN_ANOMALY":89.7661,"EPHEMERIS_TYPE":0,"CLASSIFICATION_TYPE":"U","NORAD_CAT_ID":64702,"ELEMENT_SET_NO":999,"REV_AT_EPOCH":3967,"BSTAR":0.00024374985,"MEAN_MOTION_DOT":2.817e-5,"MEAN_MOTION_DDOT":0},{"OBJECT_NAME":"ELECTRON KICK STAGE R\/B","OBJECT_ID":"2025-028A","EPOCH":"2026-03-09T17:13:06.018528","MEAN_MOTION":14.88776809,"ECCENTRICITY":0.00403458,"INCLINATION":97.9006,"RA_OF_ASC_NODE":129.2142,"ARG_OF_PERICENTER":174.9077,"MEAN_ANOMALY":185.2558,"EPHEMERIS_TYPE":0,"CLASSIFICATION_TYPE":"U","NORAD_CAT_ID":62928,"ELEMENT_SET_NO":999,"REV_AT_EPOCH":5854,"BSTAR":0.00040796816,"MEAN_MOTION_DOT":3.817e-5,"MEAN_MOTION_DDOT":0}]
